[{"OBJECT_NAME":"NOAA 18","OBJECT_ID":"2005-018A","EPOCH":"2026-03-24T21:36:02.299968","MEAN_MOTION":14.13713818,"ECCENTRICITY":0.00147577,"INCLINATION":98.8136,"RA_OF_ASC_NODE":164.7928,"ARG_OF_PERICENTER":34.5811,"MEAN_ANOMALY":325.6318,"EPHEMERIS_TYPE":0,"CLASSIFICATION_TYPE":"U","NORAD_CAT_ID":28654,"ELEMENT_SET_NO":999,"REV_AT_EPOCH":7440,"BSTAR":4.8415358e-5,"MEAN_MOTION_DOT":4.8e-7,"MEAN_MOTION_DDOT":0},{"OBJECT_NAME":"NOAA 19","OBJECT_ID":"2009-005A","EPOCH":"2026-03-24T22:54:46.371168","MEAN_MOTION":14.13459583,"ECCENTRICITY":0.00127002,"INCLINATION":98.9579,"RA_OF_ASC_NODE":154.7494,"ARG_OF_PERICENTER":268.1181,"MEAN_ANOMALY":91.8536,"EPHEMERIS_TYPE":0,"CLASSIFICATION_TYPE":"U","NORAD_CAT_ID":33591,"ELEMENT_SET_NO":999,"REV_AT_EPOCH":88258,"BSTAR":4.1862472e-5,"MEAN_MOTION_DOT":3.4e-7,"MEAN_MOTION_DDOT":0},{"OBJECT_NAME":"SUOMI NPP","OBJECT_ID":"2011-061A","EPOCH":"2026-03-24T21:32:37.981248","MEAN_MOTION":14.19497323,"ECCENTRICITY":0.00014567,"INCLINATION":98.7887,"RA_OF_ASC_NODE":25.3809,"ARG_OF_PERICENTER":168.8858,"MEAN_ANOMALY":191.2351,"EPHEMERIS_TYPE":0,"CLASSIFICATION_TYPE":"U","NORAD_CAT_ID":37849,"ELEMENT_SET_NO":999,"REV_AT_EPOCH":74648,"BSTAR":6.3113152e-5,"MEAN_MOTION_DOT":8.9e-7,"MEAN_MOTION_DDOT":0},{"OBJECT_NAME":"NOAA 20 (JPSS-1)","OBJECT_ID":"2017-073A","EPOCH":"2026-03-24T21:53:34.383264","MEAN_MOTION":14.19539893,"ECCENTRICITY":0.00017726,"INCLINATION":98.7708,"RA_OF_ASC_NODE":24.1496,"ARG_OF_PERICENTER":117.4655,"MEAN_ANOMALY":242.6702,"EPHEMERIS_TYPE":0,"CLASSIFICATION_TYPE":"U","NORAD_CAT_ID":43013,"ELEMENT_SET_NO":999,"REV_AT_EPOCH":43251,"BSTAR":5.883251e-5,"MEAN_MOTION_DOT":8.0e-7,"MEAN_MOTION_DDOT":0}]
