NOAA 18                 
1 28654U 05018A   26083.90002662  .00000048  00000+0  48415-4 0  9990
2 28654  98.8136 164.7928 0014757  34.5811 325.6318 14.13713818 74405
NOAA 19                 
1 33591U 09005A   26083.95470337  .00000034  00000+0  41862-4 0  9993
2 33591  98.9579 154.7494 0012700 268.1181  91.8536 14.13459583882587
SUOMI NPP               
1 37849U 11061A   26083.89766182  .00000089  00000+0  63113-4 0  9990
2 37849  98.7887  25.3809 0001456 168.8858 191.2351 14.19497323746481
NOAA 20 (JPSS-1)        
1 43013U 17073A   26083.91220351  .00000080  00000+0  58833-4 0  9999
2 43013  98.7708  24.1496 0001772 117.4655 242.6702 14.19539893432514
